LEMUR-2-ANDIS           
1 42838U 17042P   26068.55941107  .00023598  00000+0  79875-3 0  9998
2 42838  97.3659 249.7950 0009101   4.3248 355.8070 15.30557934473198
STARLINK-34352          
1 64257U 25120B   26068.41595669  .00023495  00000+0  80299-3 0  9994
2 64257  53.1582 118.0066 0001349  71.6740 288.4407 15.30195099 43826
